[
    {
        "Altitude(m)": 554256.0698259246,
        "Argument of Periapsis(deg)": 0.0,
        "Eccentricity": 0.0,
        "Inclination(deg)": 53.0,
        "Latitude(deg)": -0.07930450587254294,
        "Longitude(deg)": 170.09017749423705,
        "Mean Anomaly(deg)": 180.0,
        "RAAN(deg)": 90.0,
        "Satellite Name": "Starlink Shell 1 407",
        "Satellite Number": 407,
        "Semi-Major Axis(m)": 6931778.249405717,
        "Time(s)": 0
    },
    {
        "Altitude(m)": 554323.2808491725,
        "Argument of Periapsis(deg)": 0.00034857847951123687,
        "Eccentricity": 0.0,
        "Inclination(deg)": 53.0,
        "Latitude(deg)": -0.5832327601769073,
        "Longitude(deg)": 170.4255539151645,
        "Mean Anomaly(deg)": 180.62683120355672,
        "RAAN(deg)": 89.99948122992252,
        "Satellite Name": "Starlink Shell 1 407",
        "Satellite Number": 407,
        "Semi-Major Axis(m)": 6931778.249405717,
        "Time(s)": 10
    },
    {
        "Altitude(m)": 554393.2778927058,
        "Argument of Periapsis(deg)": 0.0006971569590224737,
        "Eccentricity": 0.0,
        "Inclination(deg)": 53.0,
        "Latitude(deg)": -1.087124954769784,
        "Longitude(deg)": 170.76098998363005,
        "Mean Anomaly(deg)": 181.25366240711347,
        "RAAN(deg)": 89.99896245984506,
        "Satellite Name": "Starlink Shell 1 407",
        "Satellite Number": 407,
        "Semi-Major Axis(m)": 6931778.249405717,
        "Time(s)": 20
    },
    {
        "Altitude(m)": 554466.0507209231,
        "Argument of Periapsis(deg)": 0.0010457354385337105,
        "Eccentricity": 0.0,
        "Inclination(deg)": 53.0,
        "Latitude(deg)": -1.5909581875965169,
        "Longitude(deg)": 171.09654324816233,
        "Mean Anomaly(deg)": 181.88049361067016,
        "RAAN(deg)": 89.99844368976758,
        "Satellite Name": "Starlink Shell 1 407",
        "Satellite Number": 407,
        "Semi-Major Axis(m)": 6931778.249405717,
        "Time(s)": 30
    },
    {
        "Altitude(m)": 554541.587747466,
        "Argument of Periapsis(deg)": 0.0013943139180449475,
        "Eccentricity": 0.0,
        "Inclination(deg)": 53.0,
        "Latitude(deg)": -2.0947095351867517,
        "Longitude(deg)": 171.43227181032114,
        "Mean Anomaly(deg)": 182.50732481422682,
        "RAAN(deg)": 89.9979249196901,
        "Satellite Name": "Starlink Shell 1 407",
        "Satellite Number": 407,
        "Semi-Major Axis(m)": 6931778.249405717,
        "Time(s)": 40
    },
    {
        "Altitude(m)": 554619.8760382708,
        "Argument of Periapsis(deg)": 0.0017428923975561844,
        "Eccentricity": 0.0,
        "Inclination(deg)": 53.0,
        "Latitude(deg)": -2.598356040942202,
        "Longitude(deg)": 171.76823334135221,
        "Mean Anomaly(deg)": 183.13415601778357,
        "RAAN(deg)": 89.99740614961264,
        "Satellite Name": "Starlink Shell 1 407",
        "Satellite Number": 407,
        "Semi-Major Axis(m)": 6931778.249405717,
        "Time(s)": 50
    },
    {
        "Altitude(m)": 554700.9013152531,
        "Argument of Periapsis(deg)": 0.002091470877067421,
        "Eccentricity": 0.0,
        "Inclination(deg)": 53.0,
        "Latitude(deg)": -3.1018747033946674,
        "Longitude(deg)": 172.1044856117336,
        "Mean Anomaly(deg)": 183.76098722134032,
        "RAAN(deg)": 89.99688737953517,
        "Satellite Name": "Starlink Shell 1 407",
        "Satellite Number": 407,
        "Semi-Major Axis(m)": 6931778.249405717,
        "Time(s)": 60
    },
    {
        "Altitude(m)": 554784.6479606959,
        "Argument of Periapsis(deg)": 0.0024400493565786582,
        "Eccentricity": 0.0,
        "Inclination(deg)": 53.0,
        "Latitude(deg)": -3.605242464418604,
        "Longitude(deg)": 172.44108702074823,
        "Mean Anomaly(deg)": 184.387818424897,
        "RAAN(deg)": 89.99636860945769,
        "Satellite Name": "Starlink Shell 1 407",
        "Satellite Number": 407,
        "Semi-Major Axis(m)": 6931778.249405717,
        "Time(s)": 70
    },
    {
        "Altitude(m)": 554871.0990222899,
        "Argument of Periapsis(deg)": 0.002788627836089895,
        "Eccentricity": 0.0,
        "Inclination(deg)": 53.0,
        "Latitude(deg)": -4.108436197386607,
        "Longitude(deg)": 172.7780956132168,
        "Mean Anomaly(deg)": 185.0146496284537,
        "RAAN(deg)": 89.99584983938023,
        "Satellite Name": "Starlink Shell 1 407",
        "Satellite Number": 407,
        "Semi-Major Axis(m)": 6931778.249405717,
        "Time(s)": 80
    },
    {
        "Altitude(m)": 554960.236218844,
        "Argument of Periapsis(deg)": 0.0031372063156011316,
        "Eccentricity": 0.0,
        "Inclination(deg)": 53.0,
        "Latitude(deg)": -4.611432695259126,
        "Longitude(deg)": 173.1155696091432,
        "Mean Anomaly(deg)": 185.64148083201044,
        "RAAN(deg)": 89.99533106930275,
        "Satellite Name": "Starlink Shell 1 407",
        "Satellite Number": 407,
        "Semi-Major Axis(m)": 6931778.249405717,
        "Time(s)": 90
    },
    {
        "Altitude(m)": 555052.0399466668,
        "Argument of Periapsis(deg)": 0.0034857847951123688,
        "Eccentricity": 0.0,
        "Inclination(deg)": 53.0,
        "Latitude(deg)": -5.114208658596697,
        "Longitude(deg)": 173.45356793340784,
        "Mean Anomaly(deg)": 186.26831203556716,
        "RAAN(deg)": 89.99481229922526,
        "Satellite Name": "Starlink Shell 1 407",
        "Satellite Number": 407,
        "Semi-Major Axis(m)": 6931778.249405717,
        "Time(s)": 100
    },
    {
        "Altitude(m)": 555146.4892866112,
        "Argument of Periapsis(deg)": 0.003834363274623606,
        "Eccentricity": 0.0,
        "Inclination(deg)": 53.0,
        "Latitude(deg)": -5.616740683479347,
        "Longitude(deg)": 173.7921492326399,
        "Mean Anomaly(deg)": 186.89514323912385,
        "RAAN(deg)": 89.99429352914781,
        "Satellite Name": "Starlink Shell 1 407",
        "Satellite Number": 407,
        "Semi-Major Axis(m)": 6931778.249405717,
        "Time(s)": 110
    },
    {
        "Altitude(m)": 555243.5620117688,
        "Argument of Periapsis(deg)": 0.004182941754134842,
        "Eccentricity": 0.0,
        "Inclination(deg)": 53.0,
        "Latitude(deg)": -6.1190052493278735,
        "Longitude(deg)": 174.1313724050225,
        "Mean Anomaly(deg)": 187.52197444268063,
        "RAAN(deg)": 89.99377475907032,
        "Satellite Name": "Starlink Shell 1 407",
        "Satellite Number": 407,
        "Semi-Major Axis(m)": 6931778.249405717,
        "Time(s)": 120
    },
    {
        "Altitude(m)": 555343.2345958223,
        "Argument of Periapsis(deg)": 0.004531520233646079,
        "Eccentricity": 0.0,
        "Inclination(deg)": 53.0,
        "Latitude(deg)": -6.620978706611646,
        "Longitude(deg)": 174.4712971301614,
        "Mean Anomaly(deg)": 188.1488056462373,
        "RAAN(deg)": 89.99325598899284,
        "Satellite Name": "Starlink Shell 1 407",
        "Satellite Number": 407,
        "Semi-Major Axis(m)": 6931778.249405717,
        "Time(s)": 130
    },
    {
        "Altitude(m)": 555445.4822220488,
        "Argument of Periapsis(deg)": 0.0048800987131573164,
        "Eccentricity": 0.0,
        "Inclination(deg)": 53.0,
        "Latitude(deg)": -7.122637264430571,
        "Longitude(deg)": 174.81198288615084,
        "Mean Anomaly(deg)": 188.77563684979398,
        "RAAN(deg)": 89.99273721891538,
        "Satellite Name": "Starlink Shell 1 407",
        "Satellite Number": 407,
        "Semi-Major Axis(m)": 6931778.249405717,
        "Time(s)": 140
    },
    {
        "Altitude(m)": 555550.2787929665,
        "Argument of Periapsis(deg)": 0.005228677192668553,
        "Eccentricity": 0.0,
        "Inclination(deg)": 53.0,
        "Latitude(deg)": -7.623956977963084,
        "Longitude(deg)": 175.15348947958546,
        "Mean Anomaly(deg)": 189.40246805335073,
        "RAAN(deg)": 89.9922184488379,
        "Satellite Name": "Starlink Shell 1 407",
        "Satellite Number": 407,
        "Semi-Major Axis(m)": 6931778.249405717,
        "Time(s)": 150
    },
    {
        "Altitude(m)": 555657.5969406121,
        "Argument of Periapsis(deg)": 0.00557725567217979,
        "Eccentricity": 0.0,
        "Inclination(deg)": 53.0,
        "Latitude(deg)": -8.124913735766798,
        "Longitude(deg)": 175.4958775756495,
        "Mean Anomaly(deg)": 190.02929925690748,
        "RAAN(deg)": 89.99169967876043,
        "Satellite Name": "Starlink Shell 1 407",
        "Satellite Number": 407,
        "Semi-Major Axis(m)": 6931778.249405717,
        "Time(s)": 160
    },
    {
        "Altitude(m)": 555767.4080374752,
        "Argument of Periapsis(deg)": 0.0059258341516910265,
        "Eccentricity": 0.0,
        "Inclination(deg)": 53.0,
        "Latitude(deg)": -8.62548324691767,
        "Longitude(deg)": 175.83920771541312,
        "Mean Anomaly(deg)": 190.65613046046414,
        "RAAN(deg)": 89.99118090868296,
        "Satellite Name": "Starlink Shell 1 407",
        "Satellite Number": 407,
        "Semi-Major Axis(m)": 6931778.249405717,
        "Time(s)": 170
    },
    {
        "Altitude(m)": 555879.6822080378,
        "Argument of Periapsis(deg)": 0.006274412631202263,
        "Eccentricity": 0.0,
        "Inclination(deg)": 53.0,
        "Latitude(deg)": -9.125641027980903,
        "Longitude(deg)": 176.18354084608492,
        "Mean Anomaly(deg)": 191.28296166402086,
        "RAAN(deg)": 89.99066213860549,
        "Satellite Name": "Starlink Shell 1 407",
        "Satellite Number": 407,
        "Semi-Major Axis(m)": 6931778.249405717,
        "Time(s)": 180
    }
]